ONEWEB-0327             
1 49196C 21083L   23012.26856897 -.00002179  00000-0 -55331-2 0   128
2 49196  87.9188 224.1476 0001463 123.3056 347.9165 13.18686329    15
ONEWEB-0328             
1 49197C 21083M   23012.18869627 -.00002086  00000-0 -57184-2 0   120
2 49197  87.9013 209.0042 0001324  93.5828   9.0381 13.13469956    11
ONEWEB-0331             
1 49198C 21083N   23012.19875414 -.00001174  00000-0 -29808-2 0   122
2 49198  87.9186 224.2062 0001378 100.9865 319.0178 13.18687220    16
ONEWEB-0333             
1 49199C 21083P   23012.09843007 -.00000474  00000-0 -12988-2 0   128
2 49199  87.9015 209.0221 0001735  86.7718 334.2882 13.13463496    14
ONEWEB-0334             
1 49200C 21083Q   23012.31961064  .00001953  00000-0  48096-2 0   120
2 49200  87.9323 163.5838 0002462  90.0651 346.2629 13.20770305    19
ONEWEB-0335             
1 49201C 21083R   23012.16995785 -.00001341  00000-0 -36764-2 0   123
2 49201  87.9015 209.0005 0001283  90.7056 328.2116 13.13467083    15
ONEWEB-0336             
1 49202C 21083S   23012.06268933 -.00000208  00000-0 -56971-3 0   125
2 49202  87.9025 209.0220 0001688  87.9096 334.1060 13.13477656    18
ONEWEB-0337             
1 49203C 21083T   23012.31406664  .00001858  00000-0  50946-2 0   124
2 49203  87.9021 208.9747 0001337  89.3283 330.6858 13.13468172    11
ONEWEB-0338             
1 49204C 21083U   23012.39983054 -.00009863  00000-0 -24286-1 0   129
2 49204  87.9284 163.5752 0001986  78.0913 349.6253 13.20784656    15
ONEWEB-0339             
1 49205C 21083V   23012.16961063 -.00001205  00000-0 -33043-2 0   125
2 49205  87.9019 209.0026 0001499  73.3468  28.9531 13.13471460    18
ONEWEB-0340             
1 49206C 21083W   23012.10884674 -.00000248  00000-0 -63053-3 0   123
2 49206  87.9189 224.2141 0001395  93.8668 329.5517 13.18697041    12
ONEWEB-0341             
1 49207C 21083X   23012.19218007 -.00001499  00000-0 -38060-2 0   122
2 49207  87.9187 224.1292 0001044  47.7216  11.0007 13.18691119    12
ONEWEB-0342             
1 49208C 21083Y   23012.40366156  .00000195  00000-0  48128-3 0   123
2 49208  87.9321 163.5737 0001876  84.8507 340.8720 13.20775690    16
ONEWEB-0343             
1 49209C 21083Z   23012.34599951  .00000561  00000-0  14239-2 0   120
2 49209  87.9188 224.1353 0001435  41.4282  47.2338 13.18683992    19
ONEWEB-0344             
1 49210C 21083AA  23012.27410880 -.00001378  00000-0 -37774-2 0   125
2 49210  87.9021 208.9859 0001329 100.3020 300.9320 13.13469630    11
ONEWEB-0345             
1 49211C 21083AB  23012.22934442 -.00001609  00000-0 -44118-2 0   123
2 49211  87.9028 208.9804 0000773 102.2436   2.3925 13.13475003    18
ONEWEB-0346             
1 49212C 21083AC  23012.19667081 -.00001262  00000-0 -32047-2 0   125
2 49212  87.9186 224.1567 0001329 108.2837 311.8424 13.18691806    17
ONEWEB-0348             
1 49213C 21083AD  23012.10015046 -.00001917  00000-0 -47196-2 0   123
2 49213  87.9321 163.5944 0001263 116.2883 337.1461 13.20775734    19
ONEWEB-0350             
1 49214C 21083AE  23012.07757359  .00000440  00000-0  12069-2 0   129
2 49214  87.9025 209.0368 0001108  95.3369 327.0623 13.13475289    13
ONEWEB-0351             
1 49215C 21083AF  23012.31750416  .00010636  00000-0  26194-1 0   125
2 49215  87.9294 163.5954 0002013  77.6481 358.6705 13.20755683    19
ONEWEB-0352             
1 49216C 21083AG  23012.14009674 -.00002583  00000-0 -70804-2 0   122
2 49216  87.9026 209.0085 0001717  74.5197  13.4633 13.13478037    17
ONEWEB-0354             
1 49217C 21083AH  23012.33694859  .00003105  00000-0  76456-2 0   127
2 49217  87.9323 163.5222 0001379  86.6061 342.2525 13.20769371    18
ONEWEB-0355             
1 49218C 21083AJ  23012.09009674  .00000223  00000-0  61165-3 0   126
2 49218  87.9016 209.0213 0001415  78.9177 342.5289 13.13473458    17
ONEWEB-0357             
1 49219C 21083AK  23012.26091435 -.00003647  00000-0 -89932-2 0   128
2 49219  87.9303 163.5937 0001813 105.4650 333.1236 13.20677587    13
ONEWEB-0332             
1 49279C 21090A   23012.18211064 -.00000492  00000-0 -13299-2 0   123
2 49279  87.9081 178.7318 0001926  82.6033  26.5534 13.14497424    16
ONEWEB-0347             
1 49280C 21090B   23012.41859211 -.00018387  00000-0 -41124-1 0   122
2 49280  87.9580 163.5552 0001762 142.8455 289.6009 13.27245612    12
ONEWEB-0349             
1 49281C 21090C   23012.14116155 -.00000788  00000-0 -19417-2 0   123
2 49281  87.9311 163.5821 0001110 110.2375 328.1973 13.20768337    17
ONEWEB-0353             
1 49282C 21090D   23012.12514303 -.00001465  00000-0 -39556-2 0   128
2 49282  87.9031 178.7190 0001888  90.0014 149.6926 13.14503131    17
ONEWEB-0356             
1 49283C 21090E   23012.20918238  .00001580  00000-0  38905-2 0   126
2 49283  87.9225 163.5786 0001923 133.0218 278.6500 13.20768467    13
ONEWEB-0358             
1 49284C 21090F   23012.45748100 -.00002901  00000-0 -71428-2 0   120
2 49284  87.9316 163.4987 0001288 117.1278 274.4250 13.20775624    19
ONEWEB-0359             
1 49285C 21090G   23012.45538609 -.00002848  00000-0 -70143-2 0   125
2 49285  87.9315 163.5363 0000935  89.7892 301.8122 13.20775034    10
ONEWEB-0360             
1 49286C 21090H   23012.22966851  .00001304  00000-0  32122-2 0   124
2 49286  87.9318 163.5670 0001446 102.1225 336.9159 13.20767617    10
ONEWEB-0361             
1 49287C 21090J   23012.35500414  .00002304  00000-0  56742-2 0   123
2 49287  87.9315 163.5417 0001460 102.9895 291.5674 13.20767829    17
ONEWEB-0362             
1 49288C 21090K   23012.23418240 -.00000998  00000-0 -24972-2 0   125
2 49288  87.9274 193.8377 0001733  93.1660   0.2661 13.19722279    16
ONEWEB-0363             
1 49289C 21090L   23012.45503887 -.00002491  00000-0 -61352-2 0   125
2 49289  87.9314 163.5216 0001450 115.7102 324.2152 13.20775614    13
ONEWEB-0364             
1 49290C 21090M   23012.41856896 -.00245774  00000-0 -54887-0 0   120
2 49290  87.9578 163.5904 0001852 161.7610 272.7543 13.27572937    13
ONEWEB-0365             
1 49291C 21090N   23012.23833748 -.00001149  00000-0 -28727-2 0   124
2 49291  87.9274 193.8285 0001513  87.8239 345.3395 13.19732042    12
ONEWEB-0366             
1 49292C 21090P   23012.09183285 -.00001257  00000-0 -33937-2 0   122
2 49292  87.9090 178.7217 0001798  98.5001   3.8007 13.14505975    11
ONEWEB-0367             
1 49293C 21090Q   23012.08139303 -.00002823  00000-0 -69515-2 0   125
2 49293  87.9200 163.5984 0001883  96.1375  18.2296 13.20772248    17
ONEWEB-0368             
1 49294C 21090R   23012.28660137 -.01567545  00000-0 -33647+1 0   125
2 49294  87.9687 163.6272 0000412 165.5713 264.0330 13.31537219    11
ONEWEB-0369             
1 49295C 21090S   23012.45918238  .00000538  00000-0  13465-2 0   122
2 49295  87.9222 193.7865 0001691  94.2736 327.4841 13.19725146    17
ONEWEB-0370             
1 49296C 21090T   23012.45919396 -.00002828  00000-0 -69638-2 0   128
2 49296  87.9242 163.5296 0001598 103.6921 335.9910 13.20774275    10
ONEWEB-0371             
1 49297C 21090U   23012.24808286 -.00000847  00000-0 -21182-2 0   122
2 49297  87.9274 193.8144 0001653  90.4441   9.0016 13.19723903    12
ONEWEB-0372             
1 49298C 21090V   23012.07897405 -.00002745  00000-0 -67586-2 0   122
2 49298  87.9242 163.5970 0002011  99.7967  13.1504 13.20774270    16
ONEWEB-0373             
1 49299C 21090W   23012.32551340 -.01516398  00000-0 -34547+1 0   120
2 49299  87.9522 163.5821 0001476 107.2601 319.8055 13.27522333    12
ONEWEB-0374             
1 49300C 21090X   23012.15606896 -.00000612  00000-0 -16515-2 0   124
2 49300  87.9040 178.7176 0001633  96.9677   9.0625 13.14506958    15
ONEWEB-0375             
1 49301C 21090Y   23012.37826803  .00000295  00000-0  72524-3 0   129
2 49301  87.9314 163.5437 0001551 132.6123 262.5682 13.20772322    11
ONEWEB-0376             
1 49302C 21090Z   23012.24044396 -.00001091  00000-0 -27281-2 0   121
2 49302  87.9217 193.8317 0001855  84.6399 348.5077 13.19727215    17
ONEWEB-0377             
1 49303C 21090AA  23011.85430970  .00001624  00000-0  39979-2 0   111
2 49303  87.9316 163.6422 0001314  93.7684 341.5085 13.20771314    11
ONEWEB-0378             
1 49304C 21090AB  23012.12862683 -.00000104  00000-0 -25694-3 0   128
2 49304  87.9197 163.5940 0001863 100.1212 348.9013 13.20852528    11
ONEWEB-0379             
1 49305C 21090AC  23012.14947174 -.00001205  00000-0 -32554-2 0   125
2 49305  87.9062 178.7190 0001645  95.8100   8.9703 13.14506124    12
ONEWEB-0380             
1 49306C 21090AD  23012.23625414 -.00001176  00000-0 -29419-2 0   129
2 49306  87.9214 193.8370 0001314  88.1616 345.1012 13.19724203    14
ONEWEB-0381             
1 49307C 21090AE  23012.07724951 -.00024853  00000-0 -61196-1 0   122
2 49307  87.9241 163.6249 0001392 104.9106   9.8384 13.20802839    12
ONEWEB-0382             
1 49308C 21090AF  23012.35327961  .00002506  00000-0  61708-2 0   123
2 49308  87.9235 163.5509 0001578 119.3835 277.0253 13.20769316    15
ONEWEB-0383             
1 49309C 21090AG  23012.06684442 -.00002252  00000-0 -60813-2 0   128
2 49309  87.9094 178.7114 0001706 102.0706   1.9561 13.14509463    12
ONEWEB-0384             
1 49310C 21090AH  23012.35083748  .00002710  00000-0  66824-2 0   129
2 49310  87.9216 163.5426 0001673 132.6244 261.9938 13.20682508    12
ONEWEB-0385             
1 49311C 21090AJ  23012.19496943  .00001862  00000-0  45841-2 0   120
2 49311  87.9242 163.5811 0001731 115.3278 278.8763 13.20795326    16
ONEWEB-0386             
1 49312C 21090AK  23012.36162451  .00001624  00000-0  40000-2 0   122
2 49312  87.9316 163.5406 0001881 112.1610 283.8953 13.20770191    10
ONEWEB-0387             
1 49313C 21090AL  23012.12099951 -.00000534  00000-0 -13155-2 0   123
2 49313  87.9336 163.5892 0001296 103.7185 288.8507 13.20736244    16
